[{"OBJECT_NAME":"FLORIPASAT-1","OBJECT_ID":"2019-093G","EPOCH":"2026-03-09T23:35:55.317696","MEAN_MOTION":15.02721611,"ECCENTRICITY":0.00131238,"INCLINATION":97.7908,"RA_OF_ASC_NODE":162.596,"ARG_OF_PERICENTER":52.6692,"MEAN_ANOMALY":307.5727,"EPHEMERIS_TYPE":0,"CLASSIFICATION_TYPE":"U","NORAD_CAT_ID":44885,"ELEMENT_SET_NO":999,"REV_AT_EPOCH":33774,"BSTAR":0.00066057159,"MEAN_MOTION_DOT":8.782e-5,"MEAN_MOTION_DDOT":0},{"OBJECT_NAME":"TIANPING 3B-01","OBJECT_ID":"2024-189B","EPOCH":"2026-03-09T23:37:36.067008","MEAN_MOTION":15.0098675,"ECCENTRICITY":0.00018984,"INCLINATION":97.5338,"RA_OF_ASC_NODE":92.2159,"ARG_OF_PERICENTER":36.3384,"MEAN_ANOMALY":323.7969,"EPHEMERIS_TYPE":0,"CLASSIFICATION_TYPE":"U","NORAD_CAT_ID":61615,"ELEMENT_SET_NO":999,"REV_AT_EPOCH":7556,"BSTAR":0.00029959959,"MEAN_MOTION_DOT":3.765e-5,"MEAN_MOTION_DDOT":0}]
